[{"OBJECT_NAME":"STARLINK-3355","OBJECT_ID":"2022-001F","EPOCH":"2026-03-09T11:24:42.733440","MEAN_MOTION":15.0883015,"ECCENTRICITY":0.00013965,"INCLINATION":53.2175,"RA_OF_ASC_NODE":160.0827,"ARG_OF_PERICENTER":109.4344,"MEAN_ANOMALY":250.6799,"EPHEMERIS_TYPE":0,"CLASSIFICATION_TYPE":"U","NORAD_CAT_ID":50808,"ELEMENT_SET_NO":999,"REV_AT_EPOCH":23051,"BSTAR":-3.907786e-6,"MEAN_MOTION_DOT":-3.5e-6,"MEAN_MOTION_DDOT":0},{"OBJECT_NAME":"PRSC-S1","OBJECT_ID":"2025-164A","EPOCH":"2026-03-09T14:34:55.095168","MEAN_MOTION":15.0891951,"ECCENTRICITY":0.0004466,"INCLINATION":41.129,"RA_OF_ASC_NODE":129.3637,"ARG_OF_PERICENTER":348.3012,"MEAN_ANOMALY":11.7698,"EPHEMERIS_TYPE":0,"CLASSIFICATION_TYPE":"U","NORAD_CAT_ID":65055,"ELEMENT_SET_NO":999,"REV_AT_EPOCH":3340,"BSTAR":0.00046631,"MEAN_MOTION_DOT":7.316e-5,"MEAN_MOTION_DDOT":0}]
